{"type": "Feature", "properties": {"GEO_ID": "0500000US06109", "STATE": "06", "COUNTY": "109", "NAME": "Tuolumne", "LSAD": "County", "CENSUSAREA": 2220.884}, "geometry": {"type": "Polygon", "coordinates": [[[-120.652673, 37.831422], [-120.514952, 37.95339], [-120.534814, 37.991174], [-120.504516, 37.991144], [-120.176177, 38.374014], [-120.019951, 38.433521], [-119.884749, 38.356185], [-119.753481, 38.416759], [-119.639205, 38.32688], [-119.632671, 38.198858], [-119.345922, 38.083113], [-119.30459, 38.023891], [-119.308389, 37.946824], [-119.200283, 37.885827], [-119.20128, 37.804329], [-119.268979, 37.73923], [-119.288381, 37.74503], [-119.293382, 37.767929], [-119.308995, 37.777986], [-119.535699, 37.904122], [-119.646203, 37.846823], [-119.667203, 37.801224], [-119.809409, 37.755025], [-119.907013, 37.757926], [-120.079508, 37.828808], [-120.127226, 37.781566], [-120.345437, 37.724787], [-120.325943, 37.648966], [-120.391931, 37.683559], [-120.387613, 37.633704], [-120.652673, 37.831422]]]}, "id": "06109"}